{
  "type": "FeatureCollection",
  "features": [
    {
      "type": "Feature",
      "properties": {
        "norad_id": 40010,
        "name": "KAZEOSAT 2",
        "group": "resource",
        "lat": 34.344305437409446,
        "lon": 29.20478648639087,
        "alt_km": 604.8789698488317,
        "timestamp": "2025-12-26T09:30:53.284936+00:00",
        "meta_object_name": "KAZEOSAT 2",
        "meta_object_id": "2014-033A",
        "meta_epoch": "2025-12-26T04:00:44.140320",
        "meta_mean_motion": 14.85187766,
        "meta_eccentricity": 0.000878,
        "meta_inclination": 97.5496,
        "meta_ra_of_asc_node": 203.7882,
        "meta_arg_of_pericenter": 160.8315,
        "meta_mean_anomaly": 199.3233,
        "meta_ephemeris_type": 0,
        "meta_classification_type": "U",
        "meta_norad_cat_id": 40010,
        "meta_element_set_no": 999,
        "meta_rev_at_epoch": 62327,
        "meta_bstar": 3.2082e-05,
        "meta_mean_motion_dot": 2.25e-06,
        "meta_mean_motion_ddot": 0,
        "tle_line1": "1 40010U 14033A   25360.16717755  .00000225  00000+0  32082-4 0  9998",
        "tle_line2": "2 40010  97.5496 203.7882 0008780 160.8315 199.3233 14.85187766623277"
      },
      "geometry": {
        "type": "Point",
        "coordinates": [
          29.20478648639087,
          34.344305437409446
        ]
      }
    },
    {
      "type": "Feature",
      "properties": {
        "norad_id": 40011,
        "name": "HODOYOSHI-4",
        "group": "resource",
        "lat": -12.843755159085395,
        "lon": -169.66214093223627,
        "alt_km": 626.7918991932465,
        "timestamp": "2025-12-26T09:30:53.284946+00:00",
        "meta_object_name": "HODOYOSHI-4",
        "meta_object_id": "2014-033B",
        "meta_epoch": "2025-12-26T04:43:47.707680",
        "meta_mean_motion": 14.87525993,
        "meta_eccentricity": 0.0024244,
        "meta_inclination": 97.5411,
        "meta_ra_of_asc_node": 188.4176,
        "meta_arg_of_pericenter": 156.0072,
        "meta_mean_anomaly": 204.228,
        "meta_ephemeris_type": 0,
        "meta_classification_type": "U",
        "meta_norad_cat_id": 40011,
        "meta_element_set_no": 999,
        "meta_rev_at_epoch": 62308,
        "meta_bstar": 0.00010312,
        "meta_mean_motion_dot": 8.88e-06,
        "meta_mean_motion_ddot": 0,
        "tle_line1": "1 40011U 14033B   25360.19707995  .00000888  00000+0  10312-3 0  9993",
        "tle_line2": "2 40011  97.5411 188.4176 0024244 156.0072 204.2280 14.87525993623087"
      },
      "geometry": {
        "type": "Point",
        "coordinates": [
          -169.66214093223627,
          -12.843755159085395
        ]
      }
    },
    {
      "type": "Feature",
      "properties": {
        "norad_id": 40013,
        "name": "DEIMOS-2",
        "group": "resource",
        "lat": 53.57119758597331,
        "lon": -134.68321082994873,
        "alt_km": 582.9162457460707,
        "timestamp": "2025-12-26T09:30:53.284956+00:00",
        "meta_object_name": "DEIMOS-2",
        "meta_object_id": "2014-033D",
        "meta_epoch": "2025-12-26T04:26:49.934688",
        "meta_mean_motion": 14.93030577,
        "meta_eccentricity": 0.0001352,
        "meta_inclination": 97.6047,
        "meta_ra_of_asc_node": 235.5421,
        "meta_arg_of_pericenter": 108.7841,
        "meta_mean_anomaly": 251.3526,
        "meta_ephemeris_type": 0,
        "meta_classification_type": "U",
        "meta_norad_cat_id": 40013,
        "meta_element_set_no": 999,
        "meta_rev_at_epoch": 61190,
        "meta_bstar": 0.00033692,
        "meta_mean_motion_dot": 3.451e-05,
        "meta_mean_motion_ddot": 0,
        "tle_line1": "1 40013U 14033D   25360.18530017  .00003451  00000+0  33692-3 0  9998",
        "tle_line2": "2 40013  97.6047 235.5421 0001352 108.7841 251.3526 14.93030577611905"
      },
      "geometry": {
        "type": "Point",
        "coordinates": [
          -134.68321082994873,
          53.57119758597331
        ]
      }
    },
    {
      "type": "Feature",
      "properties": {
        "norad_id": 40015,
        "name": "HODOYOSHI-3",
        "group": "resource",
        "lat": 38.511611051679296,
        "lon": -8.24543096124396,
        "alt_km": 599.9683170076732,
        "timestamp": "2025-12-26T09:30:53.284967+00:00",
        "meta_object_name": "HODOYOSHI-3",
        "meta_object_id": "2014-033F",
        "meta_epoch": "2025-12-26T04:01:40.353024",
        "meta_mean_motion": 14.8485107,
        "meta_eccentricity": 0.0032604,
        "meta_inclination": 97.6208,
        "meta_ra_of_asc_node": 165.4198,
        "meta_arg_of_pericenter": 202.3678,
        "meta_mean_anomaly": 157.6118,
        "meta_ephemeris_type": 0,
        "meta_classification_type": "U",
        "meta_norad_cat_id": 40015,
        "meta_element_set_no": 999,
        "meta_rev_at_epoch": 62194,
        "meta_bstar": 0.00018712,
        "meta_mean_motion_dot": 1.552e-05,
        "meta_mean_motion_ddot": 0,
        "tle_line1": "1 40015U 14033F   25360.16782816  .00001552  00000+0  18712-3 0  9990",
        "tle_line2": "2 40015  97.6208 165.4198 0032604 202.3678 157.6118 14.84851070621940"
      },
      "geometry": {
        "type": "Point",
        "coordinates": [
          -8.24543096124396,
          38.511611051679296
        ]
      }
    },
    {
      "type": "Feature",
      "properties": {
        "norad_id": 40053,
        "name": "SPOT 7",
        "group": "resource",
        "lat": 56.990672026833444,
        "lon": -105.1997500199497,
        "alt_km": 684.4782484966454,
        "timestamp": "2025-12-26T09:30:53.284977+00:00",
        "meta_object_name": "SPOT 7",
        "meta_object_id": "2014-034A",
        "meta_epoch": "2025-12-26T04:01:34.343040",
        "meta_mean_motion": 14.60750675,
        "meta_eccentricity": 0.0001505,
        "meta_inclination": 98.0883,
        "meta_ra_of_asc_node": 61.9324,
        "meta_arg_of_pericenter": 81.5697,
        "meta_mean_anomaly": 278.5675,
        "meta_ephemeris_type": 0,
        "meta_classification_type": "U",
        "meta_norad_cat_id": 40053,
        "meta_element_set_no": 999,
        "meta_rev_at_epoch": 61187,
        "meta_bstar": 0.00013875,
        "meta_mean_motion_dot": 6.31e-06,
        "meta_mean_motion_ddot": 0,
        "tle_line1": "1 40053U 14034A   25360.16775860  .00000631  00000+0  13875-3 0  9996",
        "tle_line2": "2 40053  98.0883  61.9324 0001505  81.5697 278.5675 14.60750675611876"
      },
      "geometry": {
        "type": "Point",
        "coordinates": [
          -105.1997500199497,
          56.990672026833444
        ]
      }
    },
    {
      "type": "Feature",
      "properties": {
        "norad_id": 40072,
        "name": "SKYSAT-B",
        "group": "resource",
        "lat": -73.98451870402769,
        "lon": -24.344798407099102,
        "alt_km": 618.1801916623144,
        "timestamp": "2025-12-26T09:30:53.284987+00:00",
        "meta_object_name": "SKYSAT-B",
        "meta_object_id": "2014-037D",
        "meta_epoch": "2025-12-25T19:19:36.203232",
        "meta_mean_motion": 14.87373258,
        "meta_eccentricity": 0.00068538,
        "meta_inclination": 98.3629,
        "meta_ra_of_asc_node": 304.2026,
        "meta_arg_of_pericenter": 113.9297,
        "meta_mean_anomaly": 246.2636,
        "meta_ephemeris_type": 0,
        "meta_classification_type": "U",
        "meta_norad_cat_id": 40072,
        "meta_element_set_no": 999,
        "meta_rev_at_epoch": 62018,
        "meta_bstar": 0.00021241273,
        "meta_mean_motion_dot": 1.859e-05,
        "meta_mean_motion_ddot": 0,
        "tle_line1": "1 40072U 14037D   25359.80528013  .00001859  00000+0  21241-3 0  9994",
        "tle_line2": "2 40072  98.3629 304.2026 0006853 113.9297 246.2636 14.87373258620187"
      },
      "geometry": {
        "type": "Point",
        "coordinates": [
          -24.344798407099102,
          -73.98451870402769
        ]
      }
    },
    {
      "type": "Feature",
      "properties": {
        "norad_id": 40115,
        "name": "WORLDVIEW-3 (WV-3)",
        "group": "resource",
        "lat": 57.027713682786136,
        "lon": 60.18885808759208,
        "alt_km": 608.6161029595814,
        "timestamp": "2025-12-26T09:30:53.284997+00:00",
        "meta_object_name": "WORLDVIEW-3 (WV-3)",
        "meta_object_id": "2014-048A",
        "meta_epoch": "2025-12-26T02:47:06.006336",
        "meta_mean_motion": 14.84677534,
        "meta_eccentricity": 0.0002079,
        "meta_inclination": 97.8763,
        "meta_ra_of_asc_node": 72.2332,
        "meta_arg_of_pericenter": 127.9297,
        "meta_mean_anomaly": 232.2106,
        "meta_ephemeris_type": 0,
        "meta_classification_type": "U",
        "meta_norad_cat_id": 40115,
        "meta_element_set_no": 999,
        "meta_rev_at_epoch": 61622,
        "meta_bstar": 0.00013214,
        "meta_mean_motion_dot": 1.065e-05,
        "meta_mean_motion_ddot": 0,
        "tle_line1": "1 40115U 14048A   25360.11604174  .00001065  00000+0  13214-3 0  9993",
        "tle_line2": "2 40115  97.8763  72.2332 0002079 127.9297 232.2106 14.84677534616229"
      },
      "geometry": {
        "type": "Point",
        "coordinates": [
          60.18885808759208,
          57.027713682786136
        ]
      }
    }
  ]
}